[Satellite]
VERSION=1.1
NAME=ITUPSAT1
NICKNAME=ITUPSAT1
TLE1=1 35935U 09051E   22342.34248000  .00000789  00000+0  18947-3 0  9999
TLE2=2 35935  98.5476 204.4614 0006915 248.1180 111.9282 14.56191748701189
STATUS=0
